{
  "norad_id": 63351,
  "name": "LEMUR-2-UNTITLED-SC",
  "history": [
    {
      "epoch": "2026-03-28T21:01:06.585888",
      "apogee_km": 540.5407570990446,
      "perigee_km": 514.3736651785439,
      "latitude_deg": -84.32531704283828,
      "longitude_deg": -120.82601568009704,
      "semi_major_axis_km": 6905.594211138794,
      "eccentricity": 0.00189463,
      "inclination_deg": 97.5574,
      "raan_deg": 63.8896,
      "arg_perigee_deg": 176.6233,
      "mean_anomaly_deg": 183.5129,
      "mean_motion_rev_day": 15.12868499
    }
  ]
}